[
    {
        "Altitude(m)": 612502.2171078218,
        "Argument of Periapsis(deg)": 0.0,
        "Eccentricity": 0.0,
        "Inclination(deg)": 60.0,
        "Latitude(deg)": -28.136045944650956,
        "Longitude(deg)": -177.8518085668808,
        "Mean Anomaly(deg)": -32.72730000000001,
        "RAAN(deg)": 300.0,
        "Satellite Name": "Test1 1340",
        "Satellite Number": 1340,
        "Semi-Major Axis(m)": 6980739.136638005,
        "Time(s)": 0
    },
    {
        "Altitude(m)": 612308.6649287532,
        "Argument of Periapsis(deg)": 0.00010418945913296404,
        "Eccentricity": 0.0,
        "Inclination(deg)": 60.0,
        "Latitude(deg)": -27.623101929843322,
        "Longitude(deg)": -177.49833294204512,
        "Mean Anomaly(deg)": -32.10719385453816,
        "RAAN(deg)": 299.99957995086027,
        "Satellite Name": "Test1 1340",
        "Satellite Number": 1340,
        "Semi-Major Axis(m)": 6980739.136638005,
        "Time(s)": 10
    }
]